OBJECT_NAME,OBJECT_ID,EPOCH,MEAN_MOTION,ECCENTRICITY,INCLINATION,RA_OF_ASC_NODE,ARG_OF_PERICENTER,MEAN_ANOMALY,EPHEMERIS_TYPE,CLASSIFICATION_TYPE,NORAD_CAT_ID,ELEMENT_SET_NO,REV_AT_EPOCH,BSTAR,MEAN_MOTION_DOT,MEAN_MOTION_DDOT
CUBEBUG-2 (LO-74),2013-066AA,2026-06-08T19:46:09.318144,14.93696969,.0059218,97.8903,108.7669,56.2091,304.4748,0,U,39440,999,67574,.37815E-3,.4079E-4,0
FUNCUBE-1 (AO-73),2013-066AE,2026-06-08T10:31:38.191872,15.09385885,.003475,97.8273,130.7025,231.4089,128.4026,0,U,39444,999,67834,.33773E-3,.5403E-4,0
UWE-3,2013-066AG,2026-06-08T19:02:47.505696,14.96958825,.0048794,97.8687,115.8113,349.3525,10.6659,0,U,39446,999,67632,.39037E-3,.4534E-4,0
UNISAT-6,2014-033C,2026-06-08T15:52:44.019840,14.88202067,.0046431,97.7872,312.5251,96.5639,264.0866,0,U,40012,999,64489,.32885E-3,.3038E-4,0
DUCHIFAT-1,2014-033M,2026-06-08T15:19:57.293184,15.62908297,.0004457,98.0467,217.6113,130.5310,229.6335,0,U,40021,999,65441,.11441E-2,.104418E-2,0
QB50P1,2014-033R,2026-06-08T18:42:41.526720,15.18133831,.0007205,98.0972,170.3368,249.0996,110.9465,0,U,40025,999,65175,.45446E-3,.921E-4,0
LILACSAT-2,2015-049K,2026-06-08T21:16:56.978976,15.51171943,.0005288,97.4660,196.4141,285.3718,74.6949,0,U,40908,999,59446,.31941E-3,.18585E-3,0
FOX-1A (AO-85),2015-058D,2026-06-08T18:24:19.848096,14.90929725,.012997,64.7758,305.1507,59.8929,301.4993,0,U,40967,999,11231,.27655E-3,.3039E-4,0
CAS-2T & KS-1Q,2016-066G,2026-06-08T18:58:32.988576,14.44666773,.034248,98.3822,235.6228,154.8869,206.9427,0,U,41847,999,50358,.24711E-3,.171E-4,0
RADFXSAT (FOX-1B),2017-073E,2026-06-08T08:15:12.420000,15.12571253,.0150896,97.4721,26.7398,359.9259,0.1924,0,U,43017,999,46405,.33533E-3,.7664E-4,0
DIWATA-2B,2018-084H,2026-06-08T20:00:39.894912,15.00413798,.0012014,98.1170,355.6802,197.6736,162.4070,0,U,43678,999,41496,.2288E-3,.2814E-4,0
ES'HAIL 2,2018-090A,2026-06-08T17:46:34.160160,1.00273374,.0001921,0.0176,286.6340,190.0015,72.9424,0,U,43700,999,2759,0,.161E-5,0
FOX-1CLIFF (AO-95),2018-099N,2026-06-08T10:12:51.119424,15.26525509,.0008894,97.4389,219.7049,29.5478,330.6261,0,U,43770,999,41188,.37741E-3,.98E-4,0
ITASAT,2018-099AE,2026-06-08T03:05:10.089600,15.18945561,.00130947,97.4031,210.8218,31.6283,328.5736,0,U,43786,999,41153,.35521857E-3,.7372E-4,0
JY1SAT (JO-97),2018-099AX,2026-06-08T10:00:51.954336,15.33373436,.0004225,97.4131,222.2231,306.8306,53.2548,0,U,43803,999,41228,.44241E-3,.14204E-3,0
UWE-4,2018-111E,2026-06-08T17:39:01.183968,15.45597672,.0007085,97.5854,87.7396,15.0599,345.0859,0,U,43880,999,40947,.71406E-3,.34399E-3,0
TIANYAN 01,2019-093C,2026-06-08T19:58:54.429024,14.86507943,.0014936,97.7527,232.2681,111.5887,248.6922,0,U,44881,999,35017,.15202E-3,.1294E-4,0
RS-44 & BREEZE-KM R/B,2019-096E,2026-06-08T19:06:25.449696,12.79748663,.0217788,82.5218,345.2821,163.7359,197.0880,0,U,44909,999,30127,.64219E-4,.28E-6,0
SALSAT,2020-068K,2026-06-08T15:24:23.045760,15.29677178,.0008838,97.8856,162.1872,342.8345,17.2593,0,U,46495,999,31405,.28424E-3,.8099E-4,0
XW-3 (CAS-9),2021-131B,2026-06-08T20:42:54.038880,14.41349823,.0005231,98.4972,252.2979,115.9447,244.2282,0,U,50466,999,23391,.1352E-3,.394E-5,0
GREENCUBE (IO-117),2022-080E,2026-06-01T11:09:37.753056,6.42583280,.00088692,70.1435,303.7143,293.3663,66.6064,0,U,53109,999,9105,0,-.3E-7,0
UMKA 1 (RS40S),2023-091G,2026-06-08T19:16:49.259424,15.20720894,.0013846,97.5054,218.5333,143.9336,216.2836,0,U,57172,999,16273,.25533E-3,.5559E-4,0
CUBESX-HSE 3 (RS42S),2023-091N,2026-06-08T19:24:16.115904,15.31002109,.0012131,97.5094,225.2910,120.5230,239.7210,0,U,57178,999,16314,.43251E-3,.12913E-3,0
MONITOR-3 (RS58S),2023-091Q,2026-06-08T19:33:04.849344,15.27671789,.0013016,97.5086,223.2003,126.6722,233.5715,0,U,57180,999,16301,.36964E-3,.9948E-4,0
MONITOR-4 (RS57S),2023-091S,2026-06-08T19:03:37.020672,15.27767265,.0013011,97.5080,223.1502,126.9912,233.2520,0,U,57182,999,16301,.40285E-3,.10882E-3,0
MONITOR-2 (RS39S),2023-091U,2026-06-08T19:32:21.200064,15.18832872,.0012386,97.5076,218.1515,136.8144,223.4064,0,U,57184,999,16268,.22666E-3,.466E-4,0
SVYATOBOR 1 (RS60S),2023-091X,2026-06-08T19:12:10.267776,15.26473318,.0010856,97.5091,223.5715,119.4817,240.7505,0,U,57187,999,16303,.37169E-3,.9639E-4,0
VIZARD-METEO (RS38S),2023-091Z,2026-06-08T19:23:59.892576,15.35758121,.0008684,97.5093,229.1273,102.6705,257.5509,0,U,57189,999,16340,.46541E-3,.1614E-3,0
POLYTECH-UNIVERSE 3 (RS46S),2023-091AB,2026-06-08T20:13:06.985344,15.19033373,.0016337,97.5051,217.6842,153.6915,206.5152,0,U,57191,999,16268,.2572E-3,.5336E-4,0
UTMN 2 (RS27S),2023-091AP,2026-06-08T19:56:12.530112,15.31845517,.0009484,97.5089,226.9372,108.5693,251.6579,0,U,57203,999,16326,.40077E-3,.12266E-3,0
